ONEWEB-0240             
1 48785U 21045U   24065.51858538  .00000139  00000+0  33634-3 0  9998
2 48785  87.8950  65.0899 0001569  75.8204 284.3100 13.15549525134797
ONEWEB-0246             
1 48786U 21045V   24065.51304137  .00000102  00000+0  23790-3 0  9992
2 48786  87.8951  65.0939 0002048  84.3429 275.7935 13.15546504134661
ONEWEB-0210             
1 48787U 21045W   24065.56374863 -.00000101  00000+0 -30316-3 0  9994
2 48787  87.8951  65.0902 0002449  75.2944 284.8457 13.15546838134714
ONEWEB-0214             
1 48788U 21045X   24065.49718871 -.00000040  00000+0 -14146-3 0  9993
2 48788  87.8949  65.0922 0002499  77.8210 282.3200 13.15549818134678
ONEWEB-0221             
1 48789U 21045Y   24065.50353520  .00000061  00000+0  12875-3 0  9990
2 48789  87.8953  65.1059 0001823  79.3188 280.8147 13.15546501134766
ONEWEB-0213             
1 48790U 21045Z   24065.49245041 -.00000089  00000+0 -27012-3 0  9999
2 48790  87.8953  65.1236 0001897  74.5845 285.5494 13.15547235134822
ONEWEB-0212             
1 48791U 21045AA  24065.54552252 -.00000004  00000+0 -45004-4 0  9990
2 48791  87.8954  65.0936 0001842  89.9994 270.1347 13.15549936134822
ONEWEB-0227             
1 48792U 21045AB  24065.54472432 -.00000017  00000+0 -78245-4 0  9999
2 48792  87.8954  65.1106 0001796  84.5663 275.5672 13.15549700134778
